ONEWEB-0115             
1 48042U 21025A   25154.42071326  .00000261  00000+0  67900-3 0  9993
2 48042  87.8974  35.4860 0001797  80.9257 279.2075 13.13469110203875
ONEWEB-0152             
1 48043U 21025B   25155.11986813  .00000512  00000+0  13662-2 0  9991
2 48043  87.8978  35.3593 0001737  82.4844 277.6483 13.13472404203937
ONEWEB-0153             
1 48044U 21025C   25154.41224809  .00000124  00000+0  30494-3 0  9996
2 48044  87.8981  35.4968 0001890  80.6580 279.4763 13.13469668203823
ONEWEB-0154             
1 48045U 21025D   25154.40886054  .00000107  00000+0  25702-3 0  9999
2 48045  87.8976  35.4978 0001822  83.4448 276.6889 13.13472083203786
ONEWEB-0116             
1 48046U 21025E   25155.13339070  .00000134  00000+0  33073-3 0  9992
2 48046  87.8982  35.3328 0001710  81.8132 278.3191 13.13467994204028
ONEWEB-0150             
1 48047U 21025F   25154.42408706  .00000338  00000+0  88955-3 0  9992
2 48047  87.8976  35.4725 0001897  76.9249 283.2092 13.13472392203824
ONEWEB-0107             
1 48048U 21025G   25154.42578690  .00000286  00000+0  74954-3 0  9999
2 48048  87.8974  35.4700 0002198  83.5447 276.5932 13.13472860203801
ONEWEB-0101             
1 48049U 21025H   25154.61708021 -.00000245  00000+0 -70653-3 0  9993
2 48049  87.8982  35.4687 0001925  84.7855 275.3493 13.13471434203803
ONEWEB-0113             
1 48050U 21025J   25154.40302552 -.00000017  00000+0 -81400-4 0  9991
2 48050  87.8979  35.4711 0001749  77.3145 282.8180 13.13972828203868
ONEWEB-0112             
1 48051U 21025K   25155.19264375  .00000407  00000+0  10785-2 0  9996
2 48051  87.8972  35.3145 0001878  78.9868 281.1472 13.13470022203982
ONEWEB-0156             
1 48052U 21025L   25155.12492934  .00000294  00000+0  76903-3 0  9993
2 48052  87.8979  35.3385 0001977  79.4871 280.6481 13.13468530203958
ONEWEB-0161             
1 48053U 21025M   25154.41394138  .00000268  00000+0  69945-3 0  9991
2 48053  87.8982  35.4967 0002029  81.0516 279.0842 13.13469535203784
ONEWEB-0158             
1 48054U 21025N   25155.13508482  .00000040  00000+0  74524-4 0  9999
2 48054  87.8979  35.3337 0001844  76.3590 283.7744 13.13467987204002
ONEWEB-0157             
1 48055U 21025P   25154.62722668 -.00000469  00000+0 -13200-2 0  9996
2 48055  87.8977  35.4458 0002304  82.6179 277.5212 13.13470336203878
ONEWEB-0162             
1 48056U 21025Q   25155.13665047  .00000019  00000+0  18357-4 0  9990
2 48056  87.8978  35.3428 0001891  80.0848 280.0494 13.13470608203896
ONEWEB-0155             
1 48057U 21025R   25154.61030077 -.00000249  00000+0 -71732-3 0  9994
2 48057  87.8978  35.4556 0001994  87.2114 272.9243 13.13468545203988
ONEWEB-0149             
1 48058U 21025S   25154.63230654 -.00000360  00000+0 -10219-2 0  9996
2 48058  87.8977  35.4461 0001898  74.5881 285.5458 13.13470180203791
ONEWEB-0148             
1 48059U 21025T   25155.12831474  .00000243  00000+0  62920-3 0  9994
2 48059  87.8982  35.3699 0002259  67.1101 293.0267 13.13468520203983
ONEWEB-0160             
1 48060U 21025U   25154.61199342 -.00000456  00000+0 -12823-2 0  9994
2 48060  87.8982  35.4693 0000991  82.2523 277.8719 13.13469188203867
ONEWEB-0163             
1 48061U 21025V   25155.13002774  .00000215  00000+0  55329-3 0  9995
2 48061  87.8978  35.3486 0002108  83.3216 276.8153 13.13468525204063
ONEWEB-0159             
1 48062U 21025W   25155.12153945  .00000361  00000+0  95254-3 0  9995
2 48062  87.8976  35.3315 0002083  79.1558 280.9806 13.13471878203972
ONEWEB-0164             
1 48063U 21025X   25155.17909393  .00000125  00000+0  30856-3 0  9992
2 48063  87.8978  35.3306 0001798  82.3193 277.8140 13.13472727203978
ONEWEB-0167             
1 48064U 21025Y   25155.13086248  .00000142  00000+0  35281-3 0  9990
2 48064  87.8988  35.3670 0002369  98.3882 261.7515 13.13470102203941
ONEWEB-0166             
1 48065U 21025Z   25154.62045568 -.00000304  00000+0 -86828-3 0  9999
2 48065  87.8976  35.4281 0001976  76.8655 283.2695 13.13468579203954
ONEWEB-0151             
1 48066U 21025AA  25154.62214843 -.00000497  00000+0 -13948-2 0  9999
2 48066  87.8978  35.4495 0001876  85.6386 274.4957 13.13469513203897
ONEWEB-0170             
1 48067U 21025AB  25154.63061528 -.00000131  00000+0 -39449-3 0  9991
2 48067  87.8978  35.4531 0001527  95.2822 264.8482 13.13472478203850
ONEWEB-0168             
1 48068U 21025AC  25154.61537632 -.00000315  00000+0 -89652-3 0  9999
2 48068  87.8983  35.4358 0001905  82.5150 277.6195 13.13468556203863
ONEWEB-0173             
1 48069U 21025AD  25154.60693167 -.00000180  00000+0 -52683-3 0  9999
2 48069  87.8984  35.4462 0002286  88.0665 272.0726 13.13470779204103
ONEWEB-0171             
1 48070U 21025AE  25154.72034624  .00000139  00000+0  34533-3 0  9997
2 48070  87.8982  35.4611 0001844  84.6087 275.5252 13.13469966203936
ONEWEB-0172             
1 48071U 21025AF  25154.62383997 -.00000259  00000+0 -74517-3 0  9998
2 48071  87.8983  35.4465 0001966  86.6737 273.4617 13.13469198204811
ONEWEB-0174             
1 48072U 21025AG  25154.60522431 -.00000177  00000+0 -52080-3 0  9995
2 48072  87.8982  35.4640 0001935  78.4515 281.6831 13.13467842204133
ONEWEB-0175             
1 48073U 21025AH  25155.16893245 -.00000387  00000+0 -10936-2 0  9998
2 48073  87.8973  35.3201 0001775  93.3355 266.7977 13.13471273203863
ONEWEB-0177             
1 48074U 21025AJ  25154.72372739  .00000249  00000+0  64764-3 0  9994
2 48074  87.8975  35.4219 0002113  81.6345 278.5023 13.13472045203997
ONEWEB-0178             
1 48075U 21025AK  25155.12337577  .00000317  00000+0  83284-3 0  9995
2 48075  87.8984  35.3850 0002047  89.6820 270.4543 13.13468362204097
ONEWEB-0108             
1 48076U 21025AL  25154.62554441 -.00000203  00000+0 -59036-3 0  9995
2 48076  87.8975  35.4367 0001717  74.5646 285.5673 13.13471210203955
ONEWEB-0169             
1 48077U 21025AM  25155.19095074  .00000390  00000+0  10342-2 0  9992
2 48077  87.8978  35.3435 0001741  76.7864 283.3459 13.13469805203929
GAOFEN-12 02            
1 48079U 21026A   25155.20488944  .00000509  00000+0  73573-4 0  9998
2 48079  97.9732 150.2677 0002921  40.6397 319.5033 14.80402660225833
STARLINK-2404           
1 48093U 21027B   25154.76093728  .00012139  00000+0  83219-3 0  9996
2 48093  53.0552 333.9802 0001479  81.8637 278.2519 15.06410597230117
STARLINK-2412           
1 48094U 21027C   25154.91110859  .00011867  00000+0  81372-3 0  9994
2 48094  53.0546 343.1043 0001348  97.0400 263.0742 15.06423898230009
STARLINK-2414           
1 48095U 21027D   25154.78576929  .00004631  00000+0  32950-3 0  9993
2 48095  53.0545 343.6660 0000827 112.3417 247.7660 15.06410240229989
STARLINK-2417           
1 48096U 21027E   25154.69364404 -.00000654  00000+0 -25015-4 0  9995
2 48096  53.0542 344.0788 0001473  92.8537 267.2620 15.06390295229964
STARLINK-2418           
1 48097U 21027F   25154.87239635  .00001792  00000+0  13910-3 0  9995
2 48097  53.0553 323.2751 0001323  87.3167 272.7973 15.06410694230272
STARLINK-2421           
1 48098U 21027G   25154.71666787  .00004452  00000+0  31764-3 0  9994
2 48098  53.0553 333.9767 0001475  93.6436 266.4722 15.06389976230163
STARLINK-2428           
1 48099U 21027H   25154.83739520  .00006365  00000+0  44584-3 0  9993
2 48099  53.0544 343.4344 0001517 100.1103 260.0057 15.06395300229980
STARLINK-2430           
1 48100U 21027J   25155.19676394 -.00000438  00000+0 -10490-4 0  9992
2 48100  53.0551 321.8188 0001331  99.8576 260.2563 15.06400699230321
STARLINK-2436           
1 48101U 21027K   25154.86782958  .00002522  00000+0  18816-3 0  9993
2 48101  53.0554 333.5001 0001517  92.7990 267.3172 15.06394216230137
STARLINK-2437           
1 48102U 21027L   25155.15621696  .00002153  00000+0  16346-3 0  9994
2 48102  53.0567 322.0031 0001409  96.2587 263.8562 15.06386406230315
STARLINK-2439           
1 48104U 21027N   25155.17603971  .00000686  00000+0  64967-4 0  9996
2 48104  53.0563 326.9130 0001432  90.4443 269.6710 15.06389487230253
STARLINK-2440           
1 48105U 21027P   25155.01707884  .00011737  00000+0  80505-3 0  9992
2 48105  53.0527 272.6293 0001146  82.3789 277.7330 15.06420686230992
STARLINK-2442           
1 48106U 21027Q   25155.20046028  .00002841  00000+0  20953-3 0  9997
2 48106  53.0540 321.8149 0001654  93.2922 266.8256 15.06404854230321
STARLINK-2443           
1 48107U 21027R   25154.75075696  .00001807  00000+0  14014-3 0  9992
2 48107  53.0561 323.8228 0001556  94.7816 265.3350 15.06407358230257
STARLINK-2448           
1 48111U 21027V   25154.77195720  .00007035  00000+0  49057-3 0  9994
2 48111  53.0552 333.6980 0001487  93.5585 266.5574 15.06408122230126
STARLINK-2449           
1 48112U 21027W   25154.76506647  .00000686  00000+0  64911-4 0  9990
2 48112  53.0557 348.9216 0001284  90.4139 269.6997 15.06410778229906
STARLINK-2450           
1 48113U 21027X   25154.90012679  .00051995  00000+0  35045-2 0  9997
2 48113  53.0560 343.1569 0002446  81.4588 278.6678 15.06180317229996
STARLINK-2452           
1 48115U 21027Z   25154.75722435  .00009976  00000+0  68770-3 0  9994
2 48115  53.0544 333.8022 0001548  94.8315 265.2851 15.06396634230110
STARLINK-2454           
1 48116U 21027AA  25154.83002360  .00003772  00000+0  27200-3 0  9993
2 48116  53.0552 343.4664 0001558  89.8783 270.2384 15.06394807229983
STARLINK-2455           
1 48117U 21027AB  25155.19951666  .00002365  00000+0  17761-3 0  9994
2 48117  53.0538 321.7939 0001964  93.8636 266.2577 15.06398581230327
STARLINK-2459           
1 48119U 21027AD  25154.74245547  .00019394  00000+0  13167-2 0  9995
2 48119  53.0544 323.8511 0001323  89.4648 270.6493 15.06416955230252
STARLINK-2460           
1 48120U 21027AE  25154.54989264  .00001106  00000+0  93162-4 0  9993
2 48120  53.0555 344.7289 0001374  87.4779 272.6367 15.06397535229947
